STARLINK-4166           
1 53291U 22086BB  22210.91667824 -.01308188  47657-3 -47279-2 0  9992
2 53291  53.2173  16.9279 0029939  56.3035  59.7466 15.87216977  1473
STARLINK-4159           
1 53292U 22086BC  22210.91667824 -.01308064  47634-3 -47365-2 0  9997
2 53292  53.2173  16.9283 0029855  56.1833  59.3233 15.87183056  1479
STARLINK-4148           
1 53293U 22086BD  22210.91667824 -.01308498  47686-3 -47266-2 0  9996
2 53293  53.2173  16.9273 0029777  55.8826  60.4108 15.87235512  1479
STARLINK-4146           
1 53294U 22086BE  22210.91667824 -.01308556  47698-3 -47219-2 0  9993
2 53294  53.2173  16.9262 0029823  55.9675  60.5684 15.87253937  1474
FALCON 9 DEB            
1 53295U 22086BF  22210.75800021  .00381815  72833-4  54618-3 0  9992
2 53295  53.2218  17.5873 0073159  62.2541 298.5885 15.99655778   842
FALCON 9 DEB            
1 53296U 22086BG  22210.50676694  .00401479  79882-4  57902-3 0  9992
2 53296  53.2207  18.8615 0069732  63.0066 297.8064 15.99970466   803
FALCON 9 DEB            
1 53297U 22086BH  22210.50351184  .00417082  86786-4  56659-3 0  9993
2 53297  53.2197  18.8353 0067834  58.6978 302.0672 16.01121490   807
FALCON 9 DEB            
1 53298U 22086BJ  22210.50270293  .00417501  87181-4  56460-3 0  9991
2 53298  53.2200  18.8289 0066689  59.6783 301.0824 16.01334169   800
2022-087A               
1 53299U 22087A   22210.61187148 -.00000069  00000+0  00000+0 0  9994
2 53299  97.4042 285.0152 0013515 276.6248 220.5253 15.21080024   371
2022-087B               
1 53300U 22087B   22210.80522630  .00002879  00000+0  13092-3 0  9996
2 53300  97.4054 285.2070 0013653 283.8859 194.9433 15.21463788   409
2022-087C               
1 53301U 22087C   22210.80898904  .00001910  00000+0  87733-4 0  9996
2 53301  97.4054 285.2089 0014395 283.0612 216.9518 15.21523037   406
2022-087D               
1 53302U 22087D   22210.80467859  .00004730  00000+0  21135-3 0  9994
2 53302  97.4058 285.2068 0013529 290.2717 188.1025 15.21740236   407
2022-087E               
1 53303U 22087E   22210.80845186  .00002741  00000+0  12338-3 0  9993
2 53303  97.4089 285.2111 0014749 288.5969 211.4564 15.21841733   407
ZK-1A R/B               
1 53304U 22087F   22210.86865998  .00012496  00000+0  13228-3 0  9990
2 53304  97.2808 285.3321 0175196 303.1501  55.3040 15.47531037   415
1998-067TQ              
1 53305U 98067TQ  22206.86996586  .00029394  00000+0  51454-3 0  9993
2 53305  51.6439 144.9831 0007477  24.2780 335.8370 15.50335637   663
RS4S                    
1 53306U 98067TR  22210.80117550  .00021095  00000+0  36809-3 0  9996
2 53306  51.6419 125.4916 0004377  70.1143 290.0318 15.50645017  1277
1998-067TS              
1 53307U 98067TS  22210.80105752  .00020662  00000+0  36048-3 0  9992
2 53307  51.6416 125.4904 0004291  61.6389 298.5033 15.50663443  1308
RS3S                    
1 53308U 98067TT  22206.86955286  .00011607  00000+0  20750-3 0  9991
2 53308  51.6418 144.9797 0004462  43.2801 316.8532 15.50481316   722
RS1S                    
1 53309U 98067TU  22210.80081521  .00021020  00000+0  36592-3 0  9994
2 53309  51.6416 125.4890 0004788  74.1482 286.0034 15.50712037  1282
RS5S                    
1 53310U 98067TV  22208.31300821  .00027254  00000+0  47342-3 0  9996
2 53310  51.6428 137.8227 0004674  66.5267  77.1199 15.50612409   921
RS6S                    
1 53311U 98067TW  22208.25148738  .00008486  00000+0  15319-3 0  9992
2 53311  51.6407 138.1211 0003997  47.6338 112.8476 15.50612875   935
RS9S                    
1 53312U 98067TX  22206.80490273  .00031450  00000+0  54552-3 0  9995
2 53312  51.6422 145.2976 0005384  57.6491 302.4872 15.50571530   651
RS12S                   
1 53313U 98067TY  22210.80032631  .00021134  00000+0  36666-3 0  9995
2 53313  51.6418 125.4857 0004521  79.6681 280.4818 15.50805172  1324
ALE-DOM                 
1 53314U 19003K   22209.30803999  .01734718  00000+0  21843-1 0  9994
2 53314  97.1334 247.7788 0010613 347.5683  12.4450 15.56547651   130
2022-088A               
1 53316U 22088A   22210.80441429 -.00000038  00000+0  00000+0 0  9997
2 53316  35.0010 123.3188 0012057 276.0495  83.0949 15.24528209    37
2022-088B               
1 53317U 22088B   22210.73900190 -.00000045  00000+0  00000+0 0  9993
2 53317  34.9819 124.1233 0085004 356.2722   2.1302 15.23959554    23
2022-088C               
1 53318U 22088C   22210.73900307 -.00000041  00000+0  00000+0 0  9990
2 53318  34.9887 123.9235 0043744 354.9592   4.3333 15.23367766    18
2022-088D               
1 53319U 22088D   22210.73898001 -.00000039  00000+0  00000+0 0  9995
2 53319  35.0012 123.4725 0048761 192.6487 168.0380 15.24271645    26
2022-088E               
1 53320U 22088E   22210.80457477 -.00000038  00000+0  00000+0 0  9992
2 53320  34.9962 123.2541 0009602 268.0474  91.9276 15.24203664    34
